BATSU-CS1 (IRAZU)       
1 43468U 98067NR  20058.81025499  .00853746  43560-3  76502-3 0  9995
2 43468  51.6240  94.9126 0006870  42.2043 317.9499 16.12137453203125
CUBERRT                 
1 43546U 98067NU  20057.14771815  .00009083  00000-0  79687-4 0  9991
2 43546  51.6354 136.0257 0003996  20.2430 339.8725 15.69695489 92583
TEMPEST-D               
1 43547U 98067NV  20058.84179212  .00003786  00000-0  50631-4 0  9995
2 43547  51.6371 149.6638 0005266   3.1315 356.9710 15.60827730 92233
RAINCUBE                
1 43548U 98067NW  20058.74621859  .00016665  00000-0  14729-3 0  9991
2 43548  51.6341 136.1804 0005250  19.5035 340.6162 15.68792998 92854
HALOSAT                 
1 43549U 98067NX  20057.49787198  .00015576  00000-0  14045-3 0  9993
2 43549  51.6362 142.8921 0004774  15.4399 344.6743 15.68362320 92211
ENDUROSAT ONE           
1 43551U 98067NZ  20058.77623235  .00023706  00000-0  17720-3 0  9996
2 43551  51.6334 129.6253 0005475  28.9108 331.2193 15.72560736 92914
EQUISAT                 
1 43552U 98067PA  20057.50731950  .00016411  00000-0  14450-3 0  9993
2 43552  51.6365 141.4951 0005636  22.4330 337.6912 15.68896895 92609
AEROCUBE 12A            
1 43556U 18046C   20058.89375098  .00000723  00000-0  37421-4 0  9999
2 43556  51.6415 276.6513 0007593 258.3007 101.7121 15.29436215 90455
AEROCUBE 12B            
1 43557U 18046D   20058.60913043  .00001265  00000-0  56469-4 0  9992
2 43557  51.6421 278.4928 0007746 257.4114 102.5999 15.29211982 90355
UITMSAT-1               
1 43589U 98067PD  20057.42001387  .00019795  00000-0  16414-3 0  9998
2 43589  51.6332 141.5269 0005128  28.2290 331.8984 15.70207037 88338
MAYA-1                  
1 43590U 98067PE  20057.47676199  .00020626  00000-0  17077-3 0  9995
2 43590  51.6334 141.1645 0005246  29.0377 331.0911 15.70212621 88272
BHUTAN-1                
1 43591U 98067PF  20058.92070971  .00018900  00000-0  15602-3 0  9997
2 43591  51.6341 133.6071 0005388  34.3374 325.7971 15.70350356 88503
SIRIUSSAT-1             
1 43595U 98067PG  20058.76606469  .00018958  00000-0  16734-3 0  9990
2 43595  51.6335 137.7859 0003499   3.0576 357.0442 15.68722486 87613
SIRIUSSAT-2             
1 43596U 98067PH  20058.75693703  .00017910  00000-0  15893-3 0  9999
2 43596  51.6343 138.5389 0003921   1.4351 358.6656 15.68637228 87605
TANUSHA-3               
1 43597U 98067PJ  20058.70048705  .00032276  00000-0  22857-3 0  9991
2 43597  51.6321 131.8510 0003874  17.4214  58.4557 15.73655893 87683
SURFSAT                 
1 43614U 18070B   20058.86171221  .00001887  00000-0  49436-4 0  9991
2 43614  93.0285 108.8718 0017507  51.9405 308.3425 15.38654841 81474
CP7 (DAVE)              
1 43615U 18070C   20058.88372006  .00001696  00000-0  44603-4 0  9997
2 43615  93.0288 108.8769 0017638  51.2842 308.9986 15.38536868 81473
ELFIN-B                 
1 43616U 18070D   20058.88225114  .00002495  00000-0  63190-4 0  9995
2 43616  93.0249 108.7913 0018193  53.4538 306.8388 15.39643134 81507
ELFIN-A                 
1 43617U 18070E   20058.86214961  .00002820  00000-0  71109-4 0  9993
2 43617  93.0304 109.2026 0017417  50.8209 309.4589 15.39779401 81504
CUBEBEL-1 (BSUSAT-1)    
1 43666U 18083E   20059.22606508  .00000805  00000-0  42805-4 0  9996
2 43666  97.4997  86.7249 0015827  30.0642  33.5934 15.18040549 73897
DEBRISSAT-2             
1 43680U 98067PR  20056.58139638  .00059030  00000-0  32367-3 0  9998
2 43680  51.6341 138.1387 0003919  12.2572 347.8524 15.79200625 96145
CICERO 10               
1 43690U 18088A   20058.50827901  .00000777  00000-0  34120-4 0  9999
2 43690  85.0410 151.4188 0014874   6.1440 353.9980 15.20054331 71884
IRVINE01                
1 43693U 18088D   20058.55696441  .00001852  00000-0  78219-4 0  9992
2 43693  85.0381 150.3963 0016896 346.4884  13.5903 15.22390174 71975
PROXIMA I               
1 43694U 18088E   20058.69239834  .00000741  00000-0  30748-4 0  9998
2 43694  85.0352 150.1074 0018130 337.1132  22.9300 15.21785218 71994
PROXIMA II              
1 43696U 18088G   20058.55930261  .00000736  00000-0  30539-4 0  9999
2 43696  85.0353 150.1978 0018199 337.5546  22.4897 15.21788651 71976
FACSAT-1                
1 43721U 18096C   20058.92961253  .00001106  00000-0  44495-4 0  9991
2 43721  97.4312 133.0698 0018628 148.9245 211.3099 15.26914597 69529
CENTAURI-2              
1 43722U 18096D   20058.33485978  .00001595  00000-0  62089-4 0  9993
2 43722  97.4321 132.6568 0018626 151.2076 209.0195 15.27341147 69435
INNOSAT-2               
1 43738U 18096V   20058.93550677  .00002011  00000-0  71852-4 0  9997
2 43738  97.4332 134.7819 0024448 158.3352 201.8928 15.29764492 69630
SIRION PATHFINDER-2     
1 43759U 18099B   20058.89296753  .00000311  00000-0  33481-4 0  9997
2 43759  97.7168 132.3833 0014125 186.2124 173.8924 14.95233337 67409
CORVUS-BC 4             
1 43767U 18099K   20058.92693158  .00000016  00000-0  67491-5 0  9991
2 43767  97.7149 131.9464 0011619 189.2373 170.8635 14.94671083 67393
MOVE-II                 
1 43780U 18099Y   20058.91287792 -.00000097  00000-0 -36016-5 0  9998
2 43780  97.7170 132.3097 0013257 198.0068 162.0685 14.95290069 67398
SPACEBEE-7              
1 43816U 18099BL  20058.67379245  .00000610  00000-0  60088-4 0  9990
2 43816  97.7182 132.3964 0013588 182.8672 177.2474 14.95598071 66930
SPACEBEE-5              
1 43817U 18099BM  20058.40038309  .00000819  00000-0  77886-4 0  9990
2 43817  97.7221 132.4135 0013578 184.5761 175.5338 14.96081453 66902
SPACEBEE-6              
1 43818U 18099BN  20058.44935826 -.00000004  00000-0  48593-5 0  9996
2 43818  97.7196 132.2657 0013419 184.0893 176.0220 14.95753117 67051
SHIELDS 1               
1 43850U 18104B   20058.76505456  .00000042  00000-0  00000+0 0  9992
2 43850  85.0243 248.5015 0016943 111.8086 248.5104 15.21287124 66646
STF-1                   
1 43852U 18104D   20058.76612392  .00000042  00000-0  00000+0 0  9992
2 43852  85.0305 248.9648 0016157 126.2304 234.0502 15.21047534 66622
ZACUBE-2                
1 43907U 18111AH  20058.85542874  .00000437  00000-0  20530-4 0  9991
2 43907  97.2757 321.8912 0021759 169.8498 190.3184 15.24464607 65160
LUME 1                  
1 43908U 18111AJ  20058.74289868  .00000779  00000-0  34062-4 0  9995
2 43908  97.2757 321.8863 0021554 169.9879 190.1793 15.24810498 65159
AOBA VELOX-IV           
1 43940U 19003J   20058.89906821  .00001548  00000-0  65219-4 0  9996
2 43940  97.2440 113.9072 0022369 252.1745 280.0778 15.24605548 61806
CATSAT-2                
1 44029U 98067PV  20058.29338424  .00012645  00000-0  14915-3 0  9990
2 44029  51.6386 158.0431 0004389  22.4089 337.7096 15.61750414 61131
DELPHINI                
1 44030U 98067PW  20057.47202752  .00012580  00000-0  14505-3 0  9998
2 44030  51.6355 161.4918 0004466  16.0491 344.0644 15.62348162 60985
UNITE                   
1 44031U 98067PX  20057.54600649  .00007360  00000-0  98231-4 0  9993
2 44031  51.6375 165.0222 0003431  15.4669 344.6428 15.59234333 60949
TECHEDSAT 8             
1 44032U 98067PY  20058.76225970  .00101153  00000-0  50157-3 0  9998
2 44032  51.6290 137.7432 0005877  12.8686 347.2465 15.81176731 61393
CATSAT-1                
1 44033U 98067PZ  20058.29320086  .00012287  00000-0  14513-3 0  9996
2 44033  51.6386 158.0460 0004328  21.5461 338.5714 15.61745550 61046
RAAVANA-1               
1 44329U 98067QE  20058.72232112  .00007541  00000-0  11432-3 0  9998
2 44329  51.6399 168.4122 0006348 312.4329  47.6125 15.55709237 39759
UGUISU                  
1 44330U 98067QF  20058.34440074  .00007337  00000-0  11169-3 0  9996
2 44330  51.6394 170.3854 0006306 309.2445  50.7986 15.55643644 39677
NEPALISAT-1             
1 44331U 98067QG  20058.71678211  .00007634  00000-0  11551-3 0  9999
2 44331  51.6395 168.3750 0006404 313.5483  46.4976 15.55740349 39749
SPOOQY-1                
1 44332U 98067QH  20058.84364352  .00007423  00000-0  11269-3 0  9994
2 44332  51.6396 167.7192 0005281 317.2184  42.8396 15.55701240 39726
SPACEBEE-9              
1 44370U 19037F   20058.87246113  .00006695  00000-0  16249-3 0  9996
2 44370  45.0123  13.2929 0014066 258.9297 100.9940 15.41759959 37525
SPACEBEE-8              
1 44371U 19037G   20059.12861061  .00012270  00000-0  26581-3 0  9997
2 44371  45.0170   9.3051 0011153 267.2748  92.6799 15.44475259 37584
IOD-1 GEMS              
1 44385U 98067QK  20058.69879558  .00012123  00000-0  17229-3 0  9999
2 44385  51.6402 168.2854 0002734 283.0506  77.0181 15.56827673 37215
MOVE-IIB                
1 44398U 19038N   20058.84919350  .00000884  00000-0  54795-4 0  9997
2 44398  97.5232  21.6015 0026165 145.2787 215.0158 15.12070419 35861
SONATE                  
1 44400U 19038Q   20058.86156631  .00000317  00000-0  22242-4 0  9991
2 44400  97.5259  21.6325 0026182 143.7734 216.5275 15.11841548 35866
LUCKY-7                 
1 44406U 19038W   20058.82942768  .00000493  00000-0  32226-4 0  9995
2 44406  97.5254  21.6688 0025650 143.6373 216.6606 15.12076038 35859
BEESAT 9                
1 44412U 19038AC  20058.83215796  .00000685  00000-0  43323-4 0  9990
2 44412  97.5248  21.6542 0023591 148.9350 211.3281 15.12106900 35553
JAISAT-1                
1 44419U 19038F   20058.88773219  .00000610  00000-0  38515-4 0  9996
2 44419  97.5250  21.8896 0022455 148.1017 212.1579 15.12589004 35882
SWIATOWID               
1 44426U 98067QL  20059.04329339  .00014433  00000-0  20112-3 0  9993
2 44426  51.6443 166.4672 0003403 276.4417 254.4127 15.57181597 37282
KRAKSAT                 
1 44427U 98067QM  20057.52312571  .00006385  00000-0  10286-3 0  9993
2 44427  51.6410 176.1755 0003289 260.3089  99.7530 15.54330426 37064
VCC A                   
1 44428U 98067QN  20057.32415997  .00007420  00000-0  11487-3 0  9993
2 44428  51.6412 176.3501 0002672 283.8202  76.2492 15.55162114 37043
